CCSDS_OMM_VERS = 2.0
CREATION_DATE  = 
ORIGINATOR     = 

OBJECT_NAME    = SL-16 R/B
OBJECT_ID      = 1998-043G
CENTER_NAME    = EARTH
REF_FRAME      = TEME
TIME_SYSTEM    = UTC
MEAN_ELEMENT_THEORY = SGP/SGP4

EPOCH          = 2026-02-10T20:36:54.832608
MEAN_MOTION    = 14.26043300
ECCENTRICITY   = .00109508
INCLINATION    = 98.8207
RA_OF_ASC_NODE = 355.0401
ARG_OF_PERICENTER = 92.0307
MEAN_ANOMALY   = 268.2127

EPHEMERIS_TYPE = 0
CLASSIFICATION_TYPE = U
NORAD_CAT_ID   = 25400
ELEMENT_SET_NO = 999
REV_AT_EPOCH   = 43516
BSTAR          = .5454565E-4
MEAN_MOTION_DOT = .85E-6
MEAN_MOTION_DDOT = 0

CCSDS_OMM_VERS = 2.0
CREATION_DATE  = 
ORIGINATOR     = 

OBJECT_NAME    = SL-16 R/B
OBJECT_ID      = 1998-045B
CENTER_NAME    = EARTH
REF_FRAME      = TEME
TIME_SYSTEM    = UTC
MEAN_ELEMENT_THEORY = SGP/SGP4

EPOCH          = 2026-02-10T22:40:04.463040
MEAN_MOTION    = 14.16185665
ECCENTRICITY   = .00054699
INCLINATION    = 71.0082
RA_OF_ASC_NODE = 237.8177
ARG_OF_PERICENTER = 57.6741
MEAN_ANOMALY   = 302.4911

EPHEMERIS_TYPE = 0
CLASSIFICATION_TYPE = U
NORAD_CAT_ID   = 25407
ELEMENT_SET_NO = 999
REV_AT_EPOCH   = 42331
BSTAR          = .99115745E-4
MEAN_MOTION_DOT = .149E-5
MEAN_MOTION_DDOT = 0

CCSDS_OMM_VERS = 2.0
CREATION_DATE  = 
ORIGINATOR     = 

OBJECT_NAME    = ISS (ZARYA)
OBJECT_ID      = 1998-067A
CENTER_NAME    = EARTH
REF_FRAME      = TEME
TIME_SYSTEM    = UTC
MEAN_ELEMENT_THEORY = SGP/SGP4

EPOCH          = 2026-02-10T20:36:33.239520
MEAN_MOTION    = 15.48531925
ECCENTRICITY   = .00110713
INCLINATION    = 51.6314
RA_OF_ASC_NODE = 204.9914
ARG_OF_PERICENTER = 85.6051
MEAN_ANOMALY   = 274.6202

EPHEMERIS_TYPE = 0
CLASSIFICATION_TYPE = U
NORAD_CAT_ID   = 25544
ELEMENT_SET_NO = 999
REV_AT_EPOCH   = 55217
BSTAR          = .19841919E-3
MEAN_MOTION_DOT = .10337E-3
MEAN_MOTION_DDOT = 0

CCSDS_OMM_VERS = 2.0
CREATION_DATE  = 
ORIGINATOR     = 

OBJECT_NAME    = CZ-4B R/B
OBJECT_ID      = 1999-025C
CENTER_NAME    = EARTH
REF_FRAME      = TEME
TIME_SYSTEM    = UTC
MEAN_ELEMENT_THEORY = SGP/SGP4

EPOCH          = 2026-02-10T15:43:35.352192
MEAN_MOTION    = 14.18259837
ECCENTRICITY   = .00380339
INCLINATION    = 98.6680
RA_OF_ASC_NODE = 86.5702
ARG_OF_PERICENTER = 63.5910
MEAN_ANOMALY   = 48.1596

EPHEMERIS_TYPE = 0
CLASSIFICATION_TYPE = U
NORAD_CAT_ID   = 25732
ELEMENT_SET_NO = 999
REV_AT_EPOCH   = 38433
BSTAR          = .43236822E-4
MEAN_MOTION_DOT = .47E-6
MEAN_MOTION_DDOT = 0

CCSDS_OMM_VERS = 2.0
CREATION_DATE  = 
ORIGINATOR     = 

OBJECT_NAME    = OKEAN-O
OBJECT_ID      = 1999-039A
CENTER_NAME    = EARTH
REF_FRAME      = TEME
TIME_SYSTEM    = UTC
MEAN_ELEMENT_THEORY = SGP/SGP4

EPOCH          = 2026-02-10T14:44:26.609568
MEAN_MOTION    = 14.80290797
ECCENTRICITY   = .00018606
INCLINATION    = 97.9504
RA_OF_ASC_NODE = 101.7728
ARG_OF_PERICENTER = 84.8091
MEAN_ANOMALY   = 275.3334

EPHEMERIS_TYPE = 0
CLASSIFICATION_TYPE = U
NORAD_CAT_ID   = 25860
ELEMENT_SET_NO = 999
REV_AT_EPOCH   = 43038
BSTAR          = .10918992E-3
MEAN_MOTION_DOT = .779E-5
MEAN_MOTION_DDOT = 0

CCSDS_OMM_VERS = 2.0
CREATION_DATE  = 
ORIGINATOR     = 

OBJECT_NAME    = SL-16 R/B
OBJECT_ID      = 1999-039B
CENTER_NAME    = EARTH
REF_FRAME      = TEME
TIME_SYSTEM    = UTC
MEAN_ELEMENT_THEORY = SGP/SGP4

EPOCH          = 2026-02-10T21:21:16.700832
MEAN_MOTION    = 14.81693200
ECCENTRICITY   = .00144568
INCLINATION    = 98.0026
RA_OF_ASC_NODE = 101.0181
ARG_OF_PERICENTER = 349.7627
MEAN_ANOMALY   = 10.3289

EPHEMERIS_TYPE = 0
CLASSIFICATION_TYPE = U
NORAD_CAT_ID   = 25861
ELEMENT_SET_NO = 999
REV_AT_EPOCH   = 43289
BSTAR          = .88337639E-4
MEAN_MOTION_DOT = .642E-5
MEAN_MOTION_DDOT = 0

CCSDS_OMM_VERS = 2.0
CREATION_DATE  = 
ORIGINATOR     = 

OBJECT_NAME    = DELTA 2 R/B
OBJECT_ID      = 1999-041E
CENTER_NAME    = EARTH
REF_FRAME      = TEME
TIME_SYSTEM    = UTC
MEAN_ELEMENT_THEORY = SGP/SGP4

EPOCH          = 2026-02-10T07:52:02.875584
MEAN_MOTION    = 14.11727680
ECCENTRICITY   = .05022798
INCLINATION    = 51.7655
RA_OF_ASC_NODE = 50.5470
ARG_OF_PERICENTER = 267.5979
MEAN_ANOMALY   = 86.7383

EPHEMERIS_TYPE = 0
CLASSIFICATION_TYPE = U
NORAD_CAT_ID   = 25876
ELEMENT_SET_NO = 999
REV_AT_EPOCH   = 35916
BSTAR          = .38632752E-3
MEAN_MOTION_DOT = .2169E-4
MEAN_MOTION_DDOT = 0

CCSDS_OMM_VERS = 2.0
CREATION_DATE  = 
ORIGINATOR     = 

OBJECT_NAME    = HELIOS 1B
OBJECT_ID      = 1999-064A
CENTER_NAME    = EARTH
REF_FRAME      = TEME
TIME_SYSTEM    = UTC
MEAN_ELEMENT_THEORY = SGP/SGP4

EPOCH          = 2026-02-10T16:11:33.820800
MEAN_MOTION    = 14.87585197
ECCENTRICITY   = .00021227
INCLINATION    = 98.1721
RA_OF_ASC_NODE = 303.1208
ARG_OF_PERICENTER = 113.4891
MEAN_ANOMALY   = 246.6548

EPHEMERIS_TYPE = 0
CLASSIFICATION_TYPE = U
NORAD_CAT_ID   = 25977
ELEMENT_SET_NO = 999
REV_AT_EPOCH   = 68124
BSTAR          = .23578114E-3
MEAN_MOTION_DOT = .2084E-4
MEAN_MOTION_DDOT = 0

CCSDS_OMM_VERS = 2.0
CREATION_DATE  = 
ORIGINATOR     = 

OBJECT_NAME    = TERRA
OBJECT_ID      = 1999-068A
CENTER_NAME    = EARTH
REF_FRAME      = TEME
TIME_SYSTEM    = UTC
MEAN_ELEMENT_THEORY = SGP/SGP4

EPOCH          = 2026-02-10T22:24:21.457152
MEAN_MOTION    = 14.60985171
ECCENTRICITY   = .00009526
INCLINATION    = 97.9652
RA_OF_ASC_NODE = 96.3826
ARG_OF_PERICENTER = 255.0173
MEAN_ANOMALY   = 149.5361

EPHEMERIS_TYPE = 0
CLASSIFICATION_TYPE = U
NORAD_CAT_ID   = 25994
ELEMENT_SET_NO = 999
REV_AT_EPOCH   = 39117
BSTAR          = .10621039E-3
MEAN_MOTION_DOT = .476E-5
MEAN_MOTION_DDOT = 0

CCSDS_OMM_VERS = 2.0
CREATION_DATE  = 
ORIGINATOR     = 

OBJECT_NAME    = SL-16 R/B
OBJECT_ID      = 2000-006B
CENTER_NAME    = EARTH
REF_FRAME      = TEME
TIME_SYSTEM    = UTC
MEAN_ELEMENT_THEORY = SGP/SGP4

EPOCH          = 2026-02-10T16:05:16.000512
MEAN_MOTION    = 14.15820358
ECCENTRICITY   = .0018313
INCLINATION    = 71.0031
RA_OF_ASC_NODE = 154.6485
ARG_OF_PERICENTER = 228.3441
MEAN_ANOMALY   = 131.6115

EPHEMERIS_TYPE = 0
CLASSIFICATION_TYPE = U
NORAD_CAT_ID   = 26070
ELEMENT_SET_NO = 999
REV_AT_EPOCH   = 34473
BSTAR          = -.62517906E-4
MEAN_MOTION_DOT = -.171E-5
MEAN_MOTION_DDOT = 0

CCSDS_OMM_VERS = 2.0
CREATION_DATE  = 
ORIGINATOR     = 

OBJECT_NAME    = TITAN 4B R/B
OBJECT_ID      = 2000-047B
CENTER_NAME    = EARTH
REF_FRAME      = TEME
TIME_SYSTEM    = UTC
MEAN_ELEMENT_THEORY = SGP/SGP4

EPOCH          = 2026-02-10T22:13:30.970560
MEAN_MOTION    = 15.09335950
ECCENTRICITY   = .00370474
INCLINATION    = 67.9891
RA_OF_ASC_NODE = 115.7564
ARG_OF_PERICENTER = 68.2491
MEAN_ANOMALY   = 292.2594

EPHEMERIS_TYPE = 0
CLASSIFICATION_TYPE = U
NORAD_CAT_ID   = 26474
ELEMENT_SET_NO = 999
REV_AT_EPOCH   = 38887
BSTAR          = .20921293E-3
MEAN_MOTION_DOT = .3263E-4
MEAN_MOTION_DDOT = 0

CCSDS_OMM_VERS = 2.0
CREATION_DATE  = 
ORIGINATOR     = 

OBJECT_NAME    = ENVISAT
OBJECT_ID      = 2002-009A
CENTER_NAME    = EARTH
REF_FRAME      = TEME
TIME_SYSTEM    = UTC
MEAN_ELEMENT_THEORY = SGP/SGP4

EPOCH          = 2026-02-10T20:11:00.384288
MEAN_MOTION    = 14.39026748
ECCENTRICITY   = .00013272
INCLINATION    = 98.3681
RA_OF_ASC_NODE = 356.0855
ARG_OF_PERICENTER = 89.7776
MEAN_ANOMALY   = 323.9396

EPHEMERIS_TYPE = 0
CLASSIFICATION_TYPE = U
NORAD_CAT_ID   = 27386
ELEMENT_SET_NO = 999
REV_AT_EPOCH   = 25531
BSTAR          = .62163149E-4
MEAN_MOTION_DOT = .149E-5
MEAN_MOTION_DDOT = 0

