SL-16 R/B               
1 25400U 98043G   26041.85896797  .00000085  00000+0  54546-4 0  9997
2 25400  98.8207 355.0401 0010950  92.0307 268.2127 14.26043300435161
SL-16 R/B               
1 25407U 98045B   26041.94449610  .00000149  00000+0  99116-4 0  9997
2 25407  71.0082 237.8177 0005469  57.6741 302.4911 14.16185665423313
ISS (ZARYA)             
1 25544U 98067A   26041.85871805  .00010337  00000+0  19842-3 0  9995
2 25544  51.6314 204.9914 0011071  85.6051 274.6202 15.48531925552172
CZ-4B R/B               
1 25732U 99025C   26041.65527028  .00000047  00000+0  43237-4 0  9995
2 25732  98.6680  86.5702 0038033  63.5910  48.1596 14.18259837384339
OKEAN-O                 
1 25860U 99039A   26041.61419687  .00000779  00000+0  10919-3 0  9991
2 25860  97.9504 101.7728 0001860  84.8091 275.3334 14.80290797430380
SL-16 R/B               
1 25861U 99039B   26041.88977663  .00000642  00000+0  88338-4 0  9994
2 25861  98.0026 101.0181 0014456 349.7627  10.3289 14.81693200432892
DELTA 2 R/B             
1 25876U 99041E   26041.32781106  .00002169  00000+0  38633-3 0  9995
2 25876  51.7655  50.5470 0502279 267.5979  86.7383 14.11727680359166
HELIOS 1B               
1 25977U 99064A   26041.67469700  .00002084  00000+0  23578-3 0  9991
2 25977  98.1721 303.1208 0002122 113.4891 246.6548 14.87585197681242
TERRA                   
1 25994U 99068A   26041.93358168  .00000476  00000+0  10621-3 0  9996
2 25994  97.9652  96.3826 0000952 255.0173 149.5361 14.60985171391174
SL-16 R/B               
1 26070U 00006B   26041.67032408 -.00000171  00000+0 -62518-4 0  9990
2 26070  71.0031 154.6485 0018313 228.3441 131.6115 14.15820358344738
TITAN 4B R/B            
1 26474U 00047B   26041.92605290  .00003263  00000+0  20921-3 0  9990
2 26474  67.9891 115.7564 0037047  68.2491 292.2594 15.09335950388872
ENVISAT                 
1 27386U 02009A   26041.84097667  .00000149  00000+0  62163-4 0  9992
2 27386  98.3681 356.0855 0001327  89.7776 323.9396 14.39026748255317
